{"spkid": "50756934", "covariance": {"data": [["1.150402944358408E-15", "-1.540968439731123E-15", "7.514624899588722E-13", "1.565458009527518E-14", "7.78079555116602E-13", "-4.85924305406529E-15"], ["-1.540968439731123E-15", "2.077304453974676E-15", "-1.064148958291405E-12", "-2.49080263621686E-14", "-1.088385700765578E-12", "-5.813514081926727E-15"], ["7.514624899588722E-13", "-1.064148958291405E-12", "9.177866756425048E-10", "5.094041090832543E-11", "8.684639337787398E-10", "6.748258479236765E-11"], ["1.565458009527518E-14", "-2.49080263621686E-14", "5.094041090832543E-11", "4.064554921529937E-11", "9.59782712722829E-12", "-7.703723798535398E-12"], ["7.78079555116602E-13", "-1.088385700765578E-12", "8.684639337787398E-10", "9.59782712722829E-12", "8.67985921344737E-10", "6.854483408299865E-11"], ["-4.85924305406529E-15", "-5.813514081926727E-15", "6.748258479236765E-11", "-7.703723798535398E-12", "6.854483408299865E-11", "4.955508351716578E-11"]], "elements": [{"label": "e", "name": "e", "sigma": 3.39175904857407e-08, "units": null, "value": ".2202327405892878", "title": "eccentricity"}, {"label": "q", "units": "au", "value": "1.018993850576683", "title": "perihelion distance", "sigma": 4.55774555451999e-08, "name": "q"}, {"sigma": 3.02949942340728e-05, "name": "tp", "units": "TDB", "value": "2458198.005442417726", "title": "time of perihelion passage", "label": "tp"}, {"label": "node", "title": "longitude of the ascending node", "value": "152.3346516616497", "units": "deg", "sigma": 6.37538620126651e-06, "name": "om"}, {"label": "peri", "name": "w", "sigma": 2.94616007939952e-05, "units": "deg", "title": "argument of perihelion", "value": "204.0570075574008"}, {"label": "i", "units": "deg", "value": "8.623332270499839", "title": "inclination", "sigma": 7.03953716640276e-06, "name": "i"}], "labels": ["e", "q", "tp", "node", "peri", "i"], "epoch": "2458270.5"}, "elements": [{"label": "e", "units": null, "title": "eccentricity", "value": ".2186375161972839", "sigma": "3.3597E-8", "name": "e"}, {"label": "a", "title": "semi-major axis", "value": "1.303318603905128", "units": "au", "name": "a", "sigma": "4.1808E-9"}, {"label": "q", "sigma": "4.598E-8", "name": "q", "units": "au", "value": "1.018364261533599", "title": "perihelion distance"}, {"name": "i", "sigma": "7.0355E-6", "value": "8.624531862600707", "title": "inclination; angle with respect to x-y ecliptic plane", "units": "deg", "label": "i"}, {"sigma": "6.3781E-6", "name": "om", "title": "longitude of the ascending node", "value": "152.1861071012091", "units": "deg", "label": "node"}, {"label": "peri", "units": "deg", "title": "argument of perihelion", "value": "204.5940625226502", "sigma": "2.9218E-5", "name": "w"}, {"label": "M", "title": "mean anomaly", "value": "186.1793785904033", "units": "deg", "name": "ma", "sigma": "1.5378E-5"}, {"label": "tp", "value": "2461462.905610280706", "title": "time of perihelion passage", "units": "TDB", "sigma": "2.3132E-5", "name": "tp"}, {"label": "period", "sigma": "2.615E-6", "name": "per", "units": "d", "value": "543.4684270196651", "title": "sidereal orbital period"}, {"label": "n", "sigma": "3.1873E-9", "name": "n", "title": "mean motion", "value": ".6624119858704757", "units": "deg/d"}, {"label": "Q", "units": "au", "value": "1.588272946276656", "title": "aphelion distance", "name": "ad", "sigma": "5.0949E-9"}], "epoch": "2461200.5"}